NORAD_CAT_ID,OBJECT_NAME,OBJECT_TYPE,EPOCH,MEAN_MOTION,ECCENTRICITY,INCLINATION,RA_OF_ASC_NODE,ARG_OF_PERICENTER,MEAN_ANOMALY,BSTAR,MEAN_MOTION_DOT,MEAN_MOTION_DDOT,TLE_LINE0,TLE_LINE1,TLE_LINE2,SEMIMAJOR_AXIS,PERIOD,APOGEE,PERIGEE,DECAYED
56773.0,STARLINK-6296,PAYLOAD,2024-06-06 04:46:26,14.98330452,0.0002945,70.0002,122.0325,268.403,91.6792,1.5922e-05,9.7e-07,0.0,0 STARLINK-6296,1 56773U 23078G   24158.19892069  .00000097  00000-0  15922-4 0  9991,2 56773  70.0002 122.0325 0002945 268.4030  91.6792 14.98330452 57833,6950.191,96.107,574.103,570.01,0.0
56773.0,STARLINK-6296,PAYLOAD,2024-06-06 14:23:14,14.98341508,0.0002959,70.0004,121.0227,268.9699,91.1121,-0.00018428,-2.292e-05,0.0,0 STARLINK-6296,1 56773U 23078G   24158.59947770 -.00002292  00000-0 -18428-3 0  9999,2 56773  70.0004 121.0227 0002959 268.9699  91.1121 14.98341508 57639,6950.157,96.106,574.079,569.966,0.0
56773.0,STARLINK-6296,PAYLOAD,2024-06-06 20:47:11,14.98733838,0.0008203,70.0001,120.3481,274.9346,85.0877,0.0041233,0.00050005,0.0,0 STARLINK-6296,1 56773U 23078G   24158.86610502  .00050005  00000-0  41233-2 0  9991,2 56773  70.0001 120.3481 0008203 274.9346  85.0877 14.98733838 57938,6948.944,96.081,576.51,565.109,0.0
56773.0,STARLINK-6296,PAYLOAD,2024-06-07 14:00:01,14.98328566,0.0002899,70.0012,118.5416,269.9631,355.5774,-0.0016789,-0.00020067,0.0,0 STARLINK-6296,1 56773U 23078G   24159.58334491 -.00020067  00000-0 -16789-2 0  9996,2 56773  70.0012 118.5416 0002899 269.9631 355.5774 14.98328566 58045,6950.197,96.107,574.077,570.047,0.0
56773.0,STARLINK-6296,PAYLOAD,2024-06-07 20:49:48,14.98331312,0.0002789,70.0002,117.8243,272.2678,87.8162,-2.8474e-05,-4.33e-06,0.0,0 STARLINK-6296,1 56773U 23078G   24159.86791725 -.00000433  00000-0 -28474-4 0  9995,2 56773  70.0002 117.8243 0002789 272.2678  87.8162 14.98331312 57824,6950.189,96.107,573.992,570.115,0.0
56773.0,STARLINK-6296,PAYLOAD,2024-06-08 04:50:27,14.98334572,0.0002823,69.9999,116.9821,269.3857,90.6979,-4.7086e-05,-6.55e-06,0.0,0 STARLINK-6296,1 56773U 23078G   24160.20170876 -.00000655  00000-0 -47086-4 0  9999,2 56773  69.9999 116.9821 0002823 269.3857  90.6979 14.98334572 58137,6950.179,96.107,574.006,570.082,0.0
56773.0,STARLINK-6296,PAYLOAD,2024-06-08 14:27:16,14.98322982,0.0003105,70.0015,115.9714,275.7866,84.2939,-2.1347e-05,-3.48e-06,0.0,0 STARLINK-6296,1 56773U 23078G   24160.60227477 -.00000348  00000-0 -21347-4 0  9994,2 56773  70.0015 115.9714 0003105 275.7866  84.2939 14.98322982 57938,6950.215,96.107,574.238,569.922,0.0
56773.0,STARLINK-6296,PAYLOAD,2024-06-08 22:27:52,14.98511172,0.0006685,69.9998,115.1301,271.2062,88.8331,-0.0034577,-0.00041318,0.0,0 STARLINK-6296,1 56773U 23078G   24160.93602870 -.00041318  00000-0 -34577-2 0  9993,2 56773  69.9998 115.1301 0006685 271.2062  88.8331 14.98511172 57986,6949.633,96.095,576.144,566.852,0.0
56773.0,STARLINK-6296,PAYLOAD,2024-06-09 14:29:18,14.98327604,0.0002923,69.9999,113.4481,269.8828,90.1996,-1.4158e-05,-2.62e-06,0.0,0 STARLINK-6296,1 56773U 23078G   24161.60368396 -.00000262  00000-0 -14158-4 0  9998,2 56773  69.9999 113.4481 0002923 269.8828  90.1996 14.98327604 58081,6950.2,96.107,574.097,570.034,0.0
56773.0,STARLINK-6296,PAYLOAD,2024-06-09 20:53:50,14.98328961,0.0003,69.9998,112.7747,269.6225,90.459,2.67e-05,2.26e-06,0.0,0 STARLINK-6296,1 56773U 23078G   24161.87072198  .00000226  00000-0  26700-4 0  9993,2 56773  69.9998 112.7747 0003000 269.6225  90.4590 14.98328961 58386,6950.196,96.107,574.146,569.976,0.0
56773.0,STARLINK-6296,PAYLOAD,2024-06-09 22:29:58,14.98329069,0.0003004,69.9998,112.6063,269.585,90.4964,2.6943e-05,2.28e-06,0.0,0 STARLINK-6296,1 56773U 23078G   24161.93748194  .00000228  00000-0  26943-4 0  9997,2 56773  69.9998 112.6063 0003004 269.5850  90.4964 14.98329069 58131,6950.196,96.107,574.149,569.973,0.0
56773.0,STARLINK-6296,PAYLOAD,2024-06-10 06:30:38,14.98337112,0.0002976,69.9998,111.7647,268.0255,92.0563,7.6451e-05,8.19e-06,0.0,0 STARLINK-6296,1 56773U 23078G   24162.27127505  .00000819  00000-0  76451-4 0  9997,2 56773  69.9998 111.7647 0002976 268.0255  92.0563 14.98337112 58444,6950.171,96.107,574.104,569.968,0.0
56773.0,STARLINK-6296,PAYLOAD,2024-06-10 14:31:18,14.98334624,0.0002927,70.0,110.9224,269.8476,90.2348,3.2142e-05,2.91e-06,0.0,0 STARLINK-6296,1 56773U 23078G   24162.60507713  .00000291  00000-0  32142-4 0  9990,2 56773  70.0000 110.9224 0002927 269.8476  90.2348 14.98334624 58236,6950.179,96.107,574.078,570.009,0.0
56773.0,STARLINK-6296,PAYLOAD,2024-06-10 20:55:51,14.98324533,0.0003066,69.9999,110.2498,268.9507,91.1301,0.00012109,1.352e-05,0.0,0 STARLINK-6296,1 56773U 23078G   24162.87212102  .00001352  00000-0  12109-3 0  9993,2 56773  69.9999 110.2498 0003066 268.9507  91.1301 14.98324533 58536,6950.21,96.107,574.206,569.944,0.0
56773.0,STARLINK-6296,PAYLOAD,2024-06-10 22:31:59,14.98324162,0.000307,69.9999,110.0815,268.9587,91.1221,0.00011438,1.272e-05,0.0,0 STARLINK-6296,1 56773U 23078G   24162.93888162  .00001272  00000-0  11438-3 0  9990,2 56773  69.9999 110.0815 0003070 268.9587  91.1221 14.98324162 58281,6950.211,96.107,574.21,569.942,0.0
56773.0,STARLINK-6296,PAYLOAD,2024-06-11 06:32:39,14.98331907,0.000307,69.9999,109.2402,269.1182,90.9626,0.00012655,1.417e-05,0.0,0 STARLINK-6296,1 56773U 23078G   24163.27267681  .00001417  00000-0  12655-3 0  9998,2 56773  69.9999 109.2402 0003070 269.1182  90.9626 14.98331907 58334,6950.187,96.107,574.186,569.918,0.0
56773.0,STARLINK-6296,PAYLOAD,2024-06-12 04:00:00,14.98351763,0.0003044,70.0015,106.9865,274.4298,226.5248,-0.0040458,-0.00048065,0.0,0 STARLINK-6296,1 56773U 23078G   24164.16667824 -.00048065  00000-0 -40458-2 0  9993,2 56773  70.0015 106.9865 0003044 274.4298 226.5248 14.98351763 58734,6950.126,96.106,574.106,569.875,0.0
56773.0,STARLINK-6296,PAYLOAD,2024-06-12 06:00:00,14.98326135,0.000304,70.0015,106.7763,276.1383,314.1978,-0.00055073,-6.657e-05,0.0,0 STARLINK-6296,1 56773U 23078G   24164.25001157 -.00006657  00000-0 -55073-3 0  9995,2 56773  70.0015 106.7763 0003040 276.1383 314.1978 14.98326135  5819,6950.205,96.107,574.183,569.957,0.0
56773.0,STARLINK-6296,PAYLOAD,2024-06-12 20:00:01,14.98320251,0.000295,70.0014,105.3057,269.6008,226.2987,0.0020828,0.00024841,0.0,0 STARLINK-6296,1 56773U 23078G   24164.83334491  .00024841  00000-0  20828-2 0  9991,2 56773  70.0014 105.3057 0002950 269.6008 226.2987 14.98320251 58835,6950.223,96.108,574.138,570.038,0.0
56773.0,STARLINK-6296,PAYLOAD,2024-06-12 22:00:00,14.9834404,0.0002994,70.0015,105.0955,270.3647,314.8978,-0.0016352,-0.00019557,0.0,0 STARLINK-6296,1 56773U 23078G   24164.91667824 -.00019557  00000-0 -16352-2 0  9996,2 56773  70.0015 105.0955 0002994 270.3647 314.8978 14.98344040  5812,6950.149,96.106,574.095,569.934,0.0
56773.0,STARLINK-6296,PAYLOAD,2024-06-13 06:36:41,14.98327375,0.0002519,70.0014,104.1941,261.2523,98.8351,-3.8149e-05,-5.48e-06,0.0,0 STARLINK-6296,1 56773U 23078G   24165.27548119 -.00000548  00000-0 -38149-4 0  9991,2 56773  70.0014 104.1941 0002519 261.2523  98.8351 14.98327375 58893,6950.201,96.107,573.817,570.315,0.0
56773.0,STARLINK-6296,PAYLOAD,2024-06-13 13:01:13,14.98326912,0.0002511,70.0014,103.5205,263.2288,96.8585,-4.7672e-05,-6.62e-06,0.0,0 STARLINK-6296,1 56773U 23078G   24165.54252216 -.00000662  00000-0 -47672-4 0  9999,2 56773  70.0014 103.5205 0002511 263.2288  96.8585 14.98326912 58670,6950.202,96.107,573.813,570.322,0.0
56773.0,STARLINK-6296,PAYLOAD,2024-06-13 22:38:01,14.98330282,0.000293,70.0001,102.5077,266.5137,93.5687,-1.6274e-05,-2.87e-06,0.0,0 STARLINK-6296,1 56773U 23078G   24165.94307812 -.00000287  00000-0 -16274-4 0  9993,2 56773  70.0001 102.5077 0002930 266.5137  93.5687 14.98330282 58735,6950.192,96.107,574.093,570.021,0.0
56773.0,STARLINK-6296,PAYLOAD,2024-06-14 13:03:16,14.98314618,0.0002862,70.0003,100.9924,266.471,93.6121,-0.0002303,-2.839e-05,0.0,0 STARLINK-6296,1 56773U 23078G   24166.54393956 -.00002839  00000-0 -23030-3 0  9996,2 56773  70.0003 100.9924 0002862 266.4710  93.6121 14.98314618 58829,6950.24,96.108,574.095,570.116,0.0
56773.0,STARLINK-6296,PAYLOAD,2024-06-14 22:40:04,14.98315383,0.0002989,69.9999,99.9821,267.4393,92.6423,-6.4649e-05,-8.64e-06,0.0,0 STARLINK-6296,1 56773U 23078G   24166.94449944 -.00000864  00000-0 -64649-4 0  9997,2 56773  69.9999  99.9821 0002989 267.4393  92.6423 14.98315383 58881,6950.238,96.108,574.181,570.026,0.0
56773.0,STARLINK-6296,PAYLOAD,2024-06-15 13:05:16,14.98329347,0.0002836,70.0003,98.4683,267.1214,92.962,7.0095e-05,7.43e-06,0.0,0 STARLINK-6296,1 56773U 23078G   24167.54533079  .00000743  00000-0  70095-4 0  9993,2 56773  70.0003  98.4683 0002836 267.1214  92.9620 14.98329347 58977,6950.195,96.107,574.031,570.089,0.0
56773.0,STARLINK-6296,PAYLOAD,2024-06-15 22:42:04,14.98310056,0.0003587,70.0002,97.4583,262.8388,97.2364,0.00054958,6.467e-05,0.0,0 STARLINK-6296,1 56773U 23078G   24167.94588908  .00006467  00000-0  54958-3 0  9996,2 56773  70.0002  97.4583 0003587 262.8388  97.2364 14.98310056 59030,6950.255,96.108,574.613,569.627,0.0
56773.0,STARLINK-6296,PAYLOAD,2024-06-16 13:07:17,14.98328972,0.0002689,70.0001,95.9429,265.0006,95.0846,0.00026792,3.105e-05,0.0,0 STARLINK-6296,1 56773U 23078G   24168.54672502  .00003105  00000-0  26792-3 0  9998,2 56773  70.0001  95.9429 0002689 265.0006  95.0846 14.98328972 59122,6950.196,96.107,573.93,570.192,0.0
56773.0,STARLINK-6296,PAYLOAD,2024-06-16 22:44:05,14.98331606,0.0002643,70.0002,94.9332,265.2063,94.8794,0.00013364,1.502e-05,0.0,0 STARLINK-6296,1 56773U 23078G   24168.94728675  .00001502  00000-0  13364-3 0  9995,2 56773  70.0002  94.9332 0002643 265.2063  94.8794 14.98331606 59183,6950.188,96.107,573.89,570.216,0.0
56773.0,STARLINK-6296,PAYLOAD,2024-06-17 21:09:58,14.98339439,0.0002456,70.0008,92.5772,267.8339,92.2538,-0.0001057,-1.354e-05,0.0,0 STARLINK-6296,1 56773U 23078G   24169.88192396 -.00001354  00000-0 -10570-3 0  9997,2 56773  70.0008  92.5772 0002456 267.8339  92.2538 14.98339439 59581,6950.164,96.106,573.736,570.322,0.0
